{
  "norad_id": 66695,
  "name": "IRIDE FM1",
  "history": [
    {
      "epoch": "2026-05-04T18:41:56.311872Z",
      "apogee_km": 506.2412592515393,
      "perigee_km": 503.00911412866935,
      "latitude_deg": 4.276065753633877e-05,
      "longitude_deg": 56.1184966373785,
      "height_km": 508.04612576496424,
      "semi_major_axis_km": 6882.762186690104,
      "eccentricity": 0.0002348,
      "inclination_deg": 97.4206,
      "raan_deg": 199.2667,
      "arg_perigee_deg": 101.9343,
      "mean_anomaly_deg": 258.2156,
      "mean_motion_rev_day": 15.20402643
    },
    {
      "epoch": "2026-05-05T18:23:30.944832Z",
      "apogee_km": 506.2064152885623,
      "perigee_km": 502.9605243150045,
      "latitude_deg": 8.153302292477269e-06,
      "longitude_deg": 60.72265834675625,
      "height_km": 507.9688192666733,
      "semi_major_axis_km": 6882.720469801783,
      "eccentricity": 0.0002358,
      "inclination_deg": 97.4203,
      "raan_deg": 200.2382,
      "arg_perigee_deg": 100.6024,
      "mean_anomaly_deg": 259.5477,
      "mean_motion_rev_day": 15.20416466
    },
    {
      "epoch": "2026-05-06T03:52:08.613984Z",
      "apogee_km": 506.19834975007416,
      "perigee_km": 502.94214095229927,
      "latitude_deg": -1.6412729239279004e-05,
      "longitude_deg": -81.43470669949593,
      "height_km": 507.9433158626441,
      "semi_major_axis_km": 6882.707245351186,
      "eccentricity": 0.00023655,
      "inclination_deg": 97.4203,
      "raan_deg": 200.627,
      "arg_perigee_deg": 100.1296,
      "mean_anomaly_deg": 260.0206,
      "mean_motion_rev_day": 15.20420848
    },
    {
      "epoch": "2026-05-07T17:46:38.392032Z",
      "apogee_km": 506.160804926476,
      "perigee_km": 502.88878750855474,
      "latitude_deg": -3.1733709916547764e-05,
      "longitude_deg": 69.9392769264212,
      "height_km": 507.8688357785011,
      "semi_major_axis_km": 6882.661796217515,
      "eccentricity": 0.0002377,
      "inclination_deg": 97.42,
      "raan_deg": 202.1819,
      "arg_perigee_deg": 99.0494,
      "mean_anomaly_deg": 261.101,
      "mean_motion_rev_day": 15.20435908
    },
    {
      "epoch": "2026-05-08T17:28:11.347104Z",
      "apogee_km": 506.1385373364492,
      "perigee_km": 502.85689710327915,
      "latitude_deg": 5.0222103084517554e-05,
      "longitude_deg": 74.55083467626388,
      "height_km": 507.78268148120054,
      "semi_major_axis_km": 6882.634717219864,
      "eccentricity": 0.0002384,
      "inclination_deg": 97.4199,
      "raan_deg": 203.1538,
      "arg_perigee_deg": 96.9411,
      "mean_anomaly_deg": 263.2096,
      "mean_motion_rev_day": 15.20444881
    },
    {
      "epoch": "2026-05-09T18:44:30.007968Z",
      "apogee_km": 506.11664704382383,
      "perigee_km": 502.83364105111286,
      "latitude_deg": -2.544641687608738e-05,
      "longitude_deg": 55.471910562568205,
      "height_km": 507.72488138814157,
      "semi_major_axis_km": 6882.612144047468,
      "eccentricity": 0.0002385,
      "inclination_deg": 97.4201,
      "raan_deg": 204.1905,
      "arg_perigee_deg": 95.7012,
      "mean_anomaly_deg": 264.4495,
      "mean_motion_rev_day": 15.20452361
    },
    {
      "epoch": "2026-05-10T18:26:02.112864Z",
      "apogee_km": 506.098515080761,
      "perigee_km": 502.81001297480725,
      "latitude_deg": -1.3642189992218807e-05,
      "longitude_deg": 60.08683123620478,
      "height_km": 507.6758971430335,
      "semi_major_axis_km": 6882.591264027784,
      "eccentricity": 0.0002389,
      "inclination_deg": 97.4202,
      "raan_deg": 205.1622,
      "arg_perigee_deg": 94.7088,
      "mean_anomaly_deg": 265.442,
      "mean_motion_rev_day": 15.2045928
    }
  ]
}